NORAD_CAT_ID,OBJECT_NAME,OBJECT_TYPE,EPOCH,MEAN_MOTION,ECCENTRICITY,INCLINATION,RA_OF_ASC_NODE,ARG_OF_PERICENTER,MEAN_ANOMALY,BSTAR,MEAN_MOTION_DOT,MEAN_MOTION_DDOT,TLE_LINE0,TLE_LINE1,TLE_LINE2,SEMIMAJOR_AXIS,PERIOD,APOGEE,PERIGEE,DECAYED
54099.0,STARLINK-5198,PAYLOAD,2024-01-23 04:17:50,15.08839604,0.00012,53.2158,219.5665,99.902,260.2108,9.1407e-05,1.167e-05,0.0,0 STARLINK-5198,1 54099U 22136BA  24023.17905341  .00001167  00000-0  91407-4 0  9992,2 54099  53.2158 219.5665 0001200  99.9020 260.2108 15.08839604 69760,6917.882,95.438,540.577,538.916,0.0
54099.0,STARLINK-5198,PAYLOAD,2024-01-23 21:47:04,15.08844191,0.0001243,53.2161,216.2965,87.9385,272.1749,5.3049e-05,5.57e-06,0.0,0 STARLINK-5198,1 54099U 22136BA  24023.90769168  .00000557  00000-0  53049-4 0  9990,2 54099  53.2161 216.2965 0001243  87.9385 272.1749 15.08844191 69871,6917.868,95.437,540.592,538.873,0.0
54099.0,STARLINK-5198,PAYLOAD,2024-01-24 02:33:13,15.08845242,0.0001242,53.2159,215.4042,88.4773,271.6362,4.9118e-05,4.94e-06,0.0,0 STARLINK-5198,1 54099U 22136BA  24024.10641023  .00000494  00000-0  49118-4 0  9994,2 54099  53.2159 215.4042 0001242  88.4773 271.6362 15.08845242 70371,6917.864,95.437,540.589,538.87,0.0
54099.0,STARLINK-5198,PAYLOAD,2024-01-24 04:08:37,15.08833759,0.0001283,53.2159,215.1068,89.488,270.626,-2.9206e-05,-7.53e-06,0.0,0 STARLINK-5198,1 54099U 22136BA  24024.17266051 -.00000753  00000-0 -29206-4 0  9991,2 54099  53.2159 215.1068 0001283  89.4880 270.6260 15.08833759 70388,6917.899,95.438,540.652,538.877,0.0
54099.0,STARLINK-5198,PAYLOAD,2024-01-24 13:40:56,15.08835846,0.0001215,53.216,213.3231,82.8426,277.2704,-9.3718e-06,-4.37e-06,0.0,0 STARLINK-5198,1 54099U 22136BA  24024.57010044 -.00000437  00000-0 -93718-5 0  9993,2 54099  53.2160 213.3231 0001215  82.8426 277.2704 15.08835846 69978,6917.893,95.438,540.599,538.918,0.0
54099.0,STARLINK-5198,PAYLOAD,2024-01-24 21:37:52,15.08839055,0.0001204,53.216,211.8363,87.1299,272.9831,1.9771e-05,2.7e-07,0.0,0 STARLINK-5198,1 54099U 22136BA  24024.90129792  .00000027  00000-0  19771-4 0  9990,2 54099  53.2160 211.8363 0001204  87.1299 272.9831 15.08839055 70028,6917.883,95.438,540.581,538.915,0.0
54099.0,STARLINK-5198,PAYLOAD,2024-01-24 23:13:15,15.08840097,0.0001192,53.2159,211.5389,88.9,271.2129,2.709e-05,1.43e-06,0.0,0 STARLINK-5198,1 54099U 22136BA  24024.96753698  .00000143  00000-0  27090-4 0  9996,2 54099  53.2159 211.5389 0001192  88.9000 271.2129 15.08840097 70509,6917.88,95.438,540.57,538.92,0.0
54099.0,STARLINK-5198,PAYLOAD,2024-01-25 18:17:52,15.08845063,0.0001231,53.216,207.9704,85.3616,274.7516,9.1903e-05,1.175e-05,0.0,0 STARLINK-5198,1 54099U 22136BA  24025.76241275  .00001175  00000-0  91903-4 0  9998,2 54099  53.2160 207.9704 0001231  85.3616 274.7516 15.08845063 70156,6917.865,95.437,540.582,538.878,0.0
54099.0,STARLINK-5198,PAYLOAD,2024-01-26 18:08:39,15.08840256,0.0001195,53.2159,203.5098,80.8052,279.3075,0.00010501,1.384e-05,0.0,0 STARLINK-5198,1 54099U 22136BA  24026.75601527  .00001384  00000-0  10501-3 0  9994,2 54099  53.2159 203.5098 0001195  80.8052 279.3075 15.08840256 70773,6917.88,95.438,540.571,538.918,0.0
54099.0,STARLINK-5198,PAYLOAD,2024-01-27 14:48:40,15.08843134,0.0001153,53.2153,199.6454,74.3003,285.8116,4.4322e-05,4.18e-06,0.0,0 STARLINK-5198,1 54099U 22136BA  24027.61713517  .00000418  00000-0  44322-4 0  9999,2 54099  53.2153 199.6454 0001153  74.3003 285.8116 15.08843134 70435,6917.871,95.437,540.533,538.938,0.0
54099.0,STARLINK-5198,PAYLOAD,2024-01-27 17:59:26,15.08846388,0.0001211,53.2158,199.0493,75.6416,284.471,6.1751e-05,6.95e-06,0.0,0 STARLINK-5198,1 54099U 22136BA  24027.74961214  .00000695  00000-0  61751-4 0  9994,2 54099  53.2158 199.0493 0001211  75.6416 284.4710 15.08846388 70455,6917.861,95.437,540.564,538.888,0.0
54099.0,STARLINK-5198,PAYLOAD,2024-01-28 11:28:41,15.08835783,0.000145,53.218,195.7825,97.2503,262.8654,3.638e-05,2.91e-06,0.0,0 STARLINK-5198,1 54099U 22136BA  24028.47825864  .00000291  00000-0  36380-4 0  9997,2 54099  53.2180 195.7825 0001450  97.2503 262.8654 15.08835783 71033,6917.893,95.438,540.761,538.755,0.0
54099.0,STARLINK-5198,PAYLOAD,2024-01-28 14:39:27,15.08833463,0.0001453,53.2176,195.1861,107.6855,252.4295,2.1626e-05,5.6e-07,0.0,0 STARLINK-5198,1 54099U 22136BA  24028.61074006  .00000056  00000-0  21626-4 0  9993,2 54099  53.2176 195.1861 0001453 107.6855 252.4295 15.08833463 70589,6917.9,95.438,540.771,538.76,0.0
54099.0,STARLINK-5198,PAYLOAD,2024-01-28 17:50:14,15.08833465,0.0001435,53.2177,194.5914,107.5001,252.6148,1.7905e-05,-3e-08,0.0,0 STARLINK-5198,1 54099U 22136BA  24028.74322050 -.00000003  00000-0  17905-4 0  9990,2 54099  53.2177 194.5914 0001435 107.5001 252.6148 15.08833465 70608,6917.9,95.438,540.758,538.773,0.0
54099.0,STARLINK-5198,PAYLOAD,2024-01-29 09:44:05,15.08839628,0.0001371,53.2172,191.6157,108.1281,251.9861,2.8745e-05,1.7e-06,0.0,0 STARLINK-5198,1 54099U 22136BA  24029.40561782  .00000170  00000-0  28745-4 0  9999,2 54099  53.2172 191.6157 0001371 108.1281 251.9861 15.08839628 70708,6917.882,95.438,540.695,538.798,0.0
54099.0,STARLINK-5198,PAYLOAD,2024-01-30 14:21:02,15.08836906,0.0001189,53.2169,186.2616,90.8666,269.2463,7.9771e-05,9.82e-06,0.0,0 STARLINK-5198,1 54099U 22136BA  24030.59794109  .00000982  00000-0  79771-4 0  9998,2 54099  53.2169 186.2616 0001189  90.8666 269.2463 15.08836906 70880,6917.89,95.438,540.577,538.932,0.0
54099.0,STARLINK-5198,PAYLOAD,2024-01-30 15:56:25,15.08837179,0.0001193,53.217,185.9643,90.878,269.2349,8.0672e-05,9.96e-06,0.0,0 STARLINK-5198,1 54099U 22136BA  24030.66418111  .00000996  00000-0  80672-4 0  9999,2 54099  53.2170 185.9643 0001193  90.8780 269.2349 15.08837179 71360,6917.889,95.438,540.579,538.929,0.0
54099.0,STARLINK-5198,PAYLOAD,2024-01-31 18:57:58,15.08839723,0.0001245,53.2171,180.9104,93.3327,266.7808,4.5222e-05,4.32e-06,0.0,0 STARLINK-5198,1 54099U 22136BA  24031.79026140  .00000432  00000-0  45222-4 0  9998,2 54099  53.2171 180.9104 0001245  93.3327 266.7808 15.08839723 71539,6917.881,95.438,540.608,538.885,0.0
54099.0,STARLINK-5198,PAYLOAD,2024-02-01 18:48:46,15.0883585,0.0001236,53.2172,176.4495,91.6985,268.4149,5.2028e-06,-2.05e-06,0.0,0 STARLINK-5198,1 54099U 22136BA  24032.78386714 -.00000205  00000-0  52028-5 0  9996,2 54099  53.2172 176.4495 0001236  91.6985 268.4149 15.08835850 71684,6917.893,95.438,540.613,538.903,0.0
54099.0,STARLINK-5198,PAYLOAD,2024-02-02 13:53:23,15.08843586,0.0001261,53.2181,172.883,85.7802,274.3334,7.7249e-05,9.42e-06,0.0,0 STARLINK-5198,1 54099U 22136BA  24033.57874191  .00000942  00000-0  77249-4 0  9993,2 54099  53.2181 172.8830 0001261  85.7802 274.3334 15.08843586 71336,6917.869,95.437,540.607,538.862,0.0
54099.0,STARLINK-5198,PAYLOAD,2024-02-02 15:28:46,15.08841063,0.0001412,53.2158,172.5859,79.287,280.8281,0.00011593,1.558e-05,0.0,0 STARLINK-5198,1 54099U 22136BA  24033.64498248  .00001558  00000-0  11593-3 0  9999,2 54099  53.2158 172.5859 0001412  79.2870 280.8281 15.08841063 71813,6917.877,95.437,540.719,538.765,0.0
54099.0,STARLINK-5198,PAYLOAD,2024-02-03 13:44:10,15.08845094,0.0001532,53.2171,168.4224,99.9356,260.1809,5.3596e-05,5.65e-06,0.0,0 STARLINK-5198,1 54099U 22136BA  24034.57234135  .00000565  00000-0  53596-4 0  9992,2 54099  53.2171 168.4224 0001532  99.9356 260.1809 15.08845094 71487,6917.865,95.437,540.79,538.67,0.0
54099.0,STARLINK-5198,PAYLOAD,2024-02-03 15:19:33,15.08845216,0.000151,53.2171,168.1251,98.5543,261.562,5.508e-05,5.89e-06,0.0,0 STARLINK-5198,1 54099U 22136BA  24034.63858103  .00000589  00000-0  55080-4 0  9992,2 54099  53.2171 168.1251 0001510  98.5543 261.5620 15.08845216 71496,6917.864,95.437,540.774,538.685,0.0
54099.0,STARLINK-5198,PAYLOAD,2024-02-04 11:59:34,15.08841644,0.000162,53.2178,164.26,107.9776,252.1393,6.1682e-06,-1.9e-06,0.0,0 STARLINK-5198,1 54099U 22136BA  24035.49970317 -.00000190  00000-0  61682-5 0  9994,2 54099  53.2178 164.2600 0001620 107.9776 252.1393 15.08841644 72094,6917.875,95.437,540.861,538.62,0.0
54099.0,STARLINK-5198,PAYLOAD,2024-02-04 13:34:57,15.08841635,0.0001633,53.218,163.9627,109.7444,250.3725,4.7501e-06,-2.12e-06,0.0,0 STARLINK-5198,1 54099U 22136BA  24035.56594296 -.00000212  00000-0  47501-5 0  9999,2 54099  53.2180 163.9627 0001633 109.7444 250.3725 15.08841635 71636,6917.875,95.437,540.87,538.611,0.0
54099.0,STARLINK-5198,PAYLOAD,2024-02-04 15:10:20,15.08841589,0.0001465,53.218,163.666,99.841,260.2748,-1.2703e-05,-4.9e-06,0.0,0 STARLINK-5198,1 54099U 22136BA  24035.63218385 -.00000490  00000-0 -12703-4 0  9993,2 54099  53.2180 163.6660 0001465  99.8410 260.2748 15.08841589 71649,6917.876,95.437,540.754,538.727,0.0
54099.0,STARLINK-5198,PAYLOAD,2024-02-05 13:25:44,15.08840181,0.0001416,53.2182,159.5017,109.2415,250.873,-1.7168e-06,-3.15e-06,0.0,0 STARLINK-5198,1 54099U 22136BA  24036.55954390 -.00000315  00000-0 -17168-5 0  9995,2 54099  53.2182 159.5017 0001416 109.2415 250.8730 15.08840181 71786,6917.88,95.438,540.724,538.765,0.0
54099.0,STARLINK-5198,PAYLOAD,2024-02-05 15:01:07,15.08841335,0.0001399,53.2179,159.2042,106.3515,253.7631,1.075e-05,-1.17e-06,0.0,0 STARLINK-5198,1 54099U 22136BA  24036.62578292 -.00000117  00000-0  10750-4 0  9994,2 54099  53.2179 159.2042 0001399 106.3515 253.7631 15.08841335 72264,6917.876,95.437,540.709,538.773,0.0
54099.0,STARLINK-5198,PAYLOAD,2024-02-06 13:16:31,15.08838773,0.0001281,53.2179,155.0431,105.7965,254.3169,4.2356e-05,3.86e-06,0.0,0 STARLINK-5198,1 54099U 22136BA  24037.55314451  .00000386  00000-0  42356-4 0  9996,2 54099  53.2179 155.0431 0001281 105.7965 254.3169 15.08838773 71930,6917.884,95.438,540.635,538.863,0.0
54099.0,STARLINK-5198,PAYLOAD,2024-02-07 11:31:56,15.08835636,0.0001205,53.2167,150.8785,91.1352,268.9779,-2.735e-05,-7.23e-06,0.0,0 STARLINK-5198,1 54099U 22136BA  24038.48051270 -.00000723  00000-0 -27350-4 0  9990,2 54099  53.2167 150.8785 0001205  91.1352 268.9779 15.08835636 72547,6917.894,95.438,540.592,538.925,0.0
